[{"OBJECT_NAME":"STARLINK-34291","OBJECT_ID":"2025-126R","EPOCH":"2026-03-09T07:03:09.205056","MEAN_MOTION":14.98331543,"ECCENTRICITY":0.00027877,"INCLINATION":70.0032,"RA_OF_ASC_NODE":35.4075,"ARG_OF_PERICENTER":257.6195,"MEAN_ANOMALY":102.4652,"EPHEMERIS_TYPE":0,"CLASSIFICATION_TYPE":"U","NORAD_CAT_ID":64359,"ELEMENT_SET_NO":999,"REV_AT_EPOCH":4062,"BSTAR":0.00017897491,"MEAN_MOTION_DOT":2.043e-5,"MEAN_MOTION_DDOT":0},{"OBJECT_NAME":"DELTA 1 R\/B(1)","OBJECT_ID":"1977-108B","EPOCH":"2026-03-09T17:09:28.687104","MEAN_MOTION":12.7159019,"ECCENTRICITY":0.11493958,"INCLINATION":28.2947,"RA_OF_ASC_NODE":96.6821,"ARG_OF_PERICENTER":61.5787,"MEAN_ANOMALY":309.5754,"EPHEMERIS_TYPE":0,"CLASSIFICATION_TYPE":"U","NORAD_CAT_ID":10490,"ELEMENT_SET_NO":999,"REV_AT_EPOCH":20703,"BSTAR":0.00020105003,"MEAN_MOTION_DOT":8.74e-6,"MEAN_MOTION_DDOT":0}]
